{
  "type": "FeatureCollection",
  "features": [
    {
      "type": "Feature",
      "properties": {
        "norad_id": 58701,
        "name": "TIANMU-1 16",
        "group": "weather",
        "lat": -49.13313197823657,
        "lon": -21.362815045886062,
        "alt_km": 498.2773455286797,
        "timestamp": "2025-12-12T11:38:31.059668+00:00",
        "meta_object_name": "TIANMU-1 16",
        "meta_object_id": "2024-004B",
        "meta_epoch": "2025-12-12T04:20:08.866752",
        "meta_mean_motion": 15.24421814,
        "meta_eccentricity": 0.0004498,
        "meta_inclination": 97.4572,
        "meta_ra_of_asc_node": 167.0417,
        "meta_arg_of_pericenter": 298.8812,
        "meta_mean_anomaly": 61.1973,
        "meta_ephemeris_type": 0,
        "meta_classification_type": "U",
        "meta_norad_cat_id": 58701,
        "meta_element_set_no": 999,
        "meta_rev_at_epoch": 10726,
        "meta_bstar": 0.0004323,
        "meta_mean_motion_dot": 0.00010539,
        "meta_mean_motion_ddot": 0,
        "tle_line1": "1 58701U 24004B   25346.18065818  .00010539  00000+0  43230-3 0  9990",
        "tle_line2": "2 58701  97.4572 167.0417 0004498 298.8812  61.1973 15.24421814107261"
      },
      "geometry": {
        "type": "Point",
        "coordinates": [
          -21.362815045886062,
          -49.13313197823657
        ]
      }
    },
    {
      "type": "Feature",
      "properties": {
        "norad_id": 58702,
        "name": "TIANMU-1 17",
        "group": "weather",
        "lat": -45.463519584601194,
        "lon": 175.40802884673266,
        "alt_km": 496.6925678685802,
        "timestamp": "2025-12-12T11:38:31.059683+00:00",
        "meta_object_name": "TIANMU-1 17",
        "meta_object_id": "2024-004C",
        "meta_epoch": "2025-12-12T03:57:59.308992",
        "meta_mean_motion": 15.24465893,
        "meta_eccentricity": 0.0003692,
        "meta_inclination": 97.4606,
        "meta_ra_of_asc_node": 167.4361,
        "meta_arg_of_pericenter": 303.1452,
        "meta_mean_anomaly": 56.943,
        "meta_ephemeris_type": 0,
        "meta_classification_type": "U",
        "meta_norad_cat_id": 58702,
        "meta_element_set_no": 999,
        "meta_rev_at_epoch": 10725,
        "meta_bstar": 0.00040862,
        "meta_mean_motion_dot": 9.969e-05,
        "meta_mean_motion_ddot": 0,
        "tle_line1": "1 58702U 24004C   25346.16526978  .00009969  00000+0  40862-3 0  9991",
        "tle_line2": "2 58702  97.4606 167.4361 0003692 303.1452  56.9430 15.24465893107251"
      },
      "geometry": {
        "type": "Point",
        "coordinates": [
          175.40802884673266,
          -45.463519584601194
        ]
      }
    },
    {
      "type": "Feature",
      "properties": {
        "norad_id": 58703,
        "name": "TIANMU-1 18",
        "group": "weather",
        "lat": 45.109480436895325,
        "lon": 160.38920964641082,
        "alt_km": 489.0949147454685,
        "timestamp": "2025-12-12T11:38:31.059695+00:00",
        "meta_object_name": "TIANMU-1 18",
        "meta_object_id": "2024-004D",
        "meta_epoch": "2025-12-12T05:08:28.506048",
        "meta_mean_motion": 15.24453807,
        "meta_eccentricity": 0.000306,
        "meta_inclination": 97.4622,
        "meta_ra_of_asc_node": 167.6801,
        "meta_arg_of_pericenter": 302.9859,
        "meta_mean_anomaly": 57.1084,
        "meta_ephemeris_type": 0,
        "meta_classification_type": "U",
        "meta_norad_cat_id": 58703,
        "meta_element_set_no": 999,
        "meta_rev_at_epoch": 10726,
        "meta_bstar": 0.00040528,
        "meta_mean_motion_dot": 9.883e-05,
        "meta_mean_motion_ddot": 0,
        "tle_line1": "1 58703U 24004D   25346.21421882  .00009883  00000+0  40528-3 0  9990",
        "tle_line2": "2 58703  97.4622 167.6801 0003060 302.9859  57.1084 15.24453807107269"
      },
      "geometry": {
        "type": "Point",
        "coordinates": [
          160.38920964641082,
          45.109480436895325
        ]
      }
    },
    {
      "type": "Feature",
      "properties": {
        "norad_id": 58990,
        "name": "INSAT-3DS",
        "group": "weather",
        "lat": -0.021739316480181514,
        "lon": -21.849792652294415,
        "alt_km": 35784.420265653185,
        "timestamp": "2025-12-12T11:38:31.059706+00:00",
        "meta_object_name": "INSAT-3DS",
        "meta_object_id": "2024-033A",
        "meta_epoch": "2025-12-12T03:35:51.341856",
        "meta_mean_motion": 1.00272558,
        "meta_eccentricity": 0.0001352,
        "meta_inclination": 0.0397,
        "meta_ra_of_asc_node": 135.7539,
        "meta_arg_of_pericenter": 127.2447,
        "meta_mean_anomaly": 314.1455,
        "meta_ephemeris_type": 0,
        "meta_classification_type": "U",
        "meta_norad_cat_id": 58990,
        "meta_element_set_no": 999,
        "meta_rev_at_epoch": 4519,
        "meta_bstar": 0,
        "meta_mean_motion_dot": -1.47e-06,
        "meta_mean_motion_ddot": 0,
        "tle_line1": "1 58990U 24033A   25346.14989979 -.00000147  00000+0  00000+0 0  9990",
        "tle_line2": "2 58990   0.0397 135.7539 0001352 127.2447 314.1455  1.00272558 45195"
      },
      "geometry": {
        "type": "Point",
        "coordinates": [
          -21.849792652294415,
          -0.021739316480181514
        ]
      }
    },
    {
      "type": "Feature",
      "properties": {
        "norad_id": 59051,
        "name": "METEOR-M2 4",
        "group": "weather",
        "lat": -45.65828584118186,
        "lon": -47.61284698616075,
        "alt_km": 820.3909924447162,
        "timestamp": "2025-12-12T11:38:31.059717+00:00",
        "meta_object_name": "METEOR-M2 4",
        "meta_object_id": "2024-039A",
        "meta_epoch": "2025-12-12T05:06:22.278240",
        "meta_mean_motion": 14.22401147,
        "meta_eccentricity": 0.0007067,
        "meta_inclination": 98.6765,
        "meta_ra_of_asc_node": 303.1299,
        "meta_arg_of_pericenter": 0.1246,
        "meta_mean_anomaly": 359.9932,
        "meta_ephemeris_type": 0,
        "meta_classification_type": "U",
        "meta_norad_cat_id": 59051,
        "meta_element_set_no": 999,
        "meta_rev_at_epoch": 9268,
        "meta_bstar": 5.5744e-05,
        "meta_mean_motion_dot": 8e-07,
        "meta_mean_motion_ddot": 0,
        "tle_line1": "1 59051U 24039A   25346.21275785  .00000080  00000+0  55744-4 0  9991",
        "tle_line2": "2 59051  98.6765 303.1299 0007067   0.1246 359.9932 14.22401147 92684"
      },
      "geometry": {
        "type": "Point",
        "coordinates": [
          -47.61284698616075,
          -45.65828584118186
        ]
      }
    },
    {
      "type": "Feature",
      "properties": {
        "norad_id": 60133,
        "name": "GOES 19",
        "group": "weather",
        "lat": 0.0034195401743469258,
        "lon": -179.14316131460924,
        "alt_km": 35789.86278154768,
        "timestamp": "2025-12-12T11:38:31.059729+00:00",
        "meta_object_name": "GOES 19",
        "meta_object_id": "2024-119A",
        "meta_epoch": "2025-12-12T02:51:03.132000",
        "meta_mean_motion": 1.00270917,
        "meta_eccentricity": 0.0001288,
        "meta_inclination": 0.0282,
        "meta_ra_of_asc_node": 122.993,
        "meta_arg_of_pericenter": 188.2913,
        "meta_mean_anomaly": 97.3633,
        "meta_ephemeris_type": 0,
        "meta_classification_type": "U",
        "meta_norad_cat_id": 60133,
        "meta_element_set_no": 999,
        "meta_rev_at_epoch": 508,
        "meta_bstar": 0,
        "meta_mean_motion_dot": -2.39e-06,
        "meta_mean_motion_ddot": 0,
        "tle_line1": "1 60133U 24119A   25346.11878625 -.00000239  00000+0  00000+0 0  9991",
        "tle_line2": "2 60133   0.0282 122.9930 0001288 188.2913  97.3633  1.00270917  5085"
      },
      "geometry": {
        "type": "Point",
        "coordinates": [
          -179.14316131460924,
          0.0034195401743469258
        ]
      }
    },
    {
      "type": "Feature",
      "properties": {
        "norad_id": 65815,
        "name": "FENGYUN 3H",
        "group": "weather",
        "lat": -14.939774333088353,
        "lon": 103.75080555413133,
        "alt_km": 830.4345564173946,
        "timestamp": "2025-12-12T11:38:31.059739+00:00",
        "meta_object_name": "FENGYUN 3H",
        "meta_object_id": "2025-219A",
        "meta_epoch": "2025-12-12T02:16:13.674144",
        "meta_mean_motion": 14.19904461,
        "meta_eccentricity": 6.16e-05,
        "meta_inclination": 98.6584,
        "meta_ra_of_asc_node": 285.699,
        "meta_arg_of_pericenter": 90.8199,
        "meta_mean_anomaly": 269.3048,
        "meta_ephemeris_type": 0,
        "meta_classification_type": "U",
        "meta_norad_cat_id": 65815,
        "meta_element_set_no": 999,
        "meta_rev_at_epoch": 1083,
        "meta_bstar": 0.00010581,
        "meta_mean_motion_dot": 1.81e-06,
        "meta_mean_motion_ddot": 0,
        "tle_line1": "1 65815U 25219A   25346.09460271  .00000181  00000+0  10581-3 0  9990",
        "tle_line2": "2 65815  98.6584 285.6990 0000616  90.8199 269.3048 14.19904461 10838"
      },
      "geometry": {
        "type": "Point",
        "coordinates": [
          103.75080555413133,
          -14.939774333088353
        ]
      }
    }
  ]
}